CCSDS_OMM_VERS = 2.0
CREATION_DATE  = 
ORIGINATOR     = 

OBJECT_NAME    = SL-3 R/B
OBJECT_ID      = 1982-039B
CENTER_NAME    = EARTH
REF_FRAME      = TEME
TIME_SYSTEM    = UTC
MEAN_ELEMENT_THEORY = SGP/SGP4

EPOCH          = 2025-10-30T17:55:43.341024
MEAN_MOTION    = 15.09183621
ECCENTRICITY   = .0032814
INCLINATION    = 81.1839
RA_OF_ASC_NODE = 5.5190
ARG_OF_PERICENTER = 31.4384
MEAN_ANOMALY   = 328.8793

EPHEMERIS_TYPE = 0
CLASSIFICATION_TYPE = U
NORAD_CAT_ID   = 13154
ELEMENT_SET_NO = 999
REV_AT_EPOCH   = 36203
BSTAR          = .24315E-3
MEAN_MOTION_DOT = .3934E-4
MEAN_MOTION_DDOT = 0

CCSDS_OMM_VERS = 2.0
CREATION_DATE  = 
ORIGINATOR     = 

OBJECT_NAME    = SL-3 R/B
OBJECT_ID      = 1982-079B
CENTER_NAME    = EARTH
REF_FRAME      = TEME
TIME_SYSTEM    = UTC
MEAN_ELEMENT_THEORY = SGP/SGP4

EPOCH          = 2025-10-30T18:51:05.905728
MEAN_MOTION    = 15.22930228
ECCENTRICITY   = .0024712
INCLINATION    = 81.1490
RA_OF_ASC_NODE = 346.2738
ARG_OF_PERICENTER = 243.3311
MEAN_ANOMALY   = 116.5391

EPHEMERIS_TYPE = 0
CLASSIFICATION_TYPE = U
NORAD_CAT_ID   = 13403
ELEMENT_SET_NO = 999
REV_AT_EPOCH   = 35791
BSTAR          = .31602E-3
MEAN_MOTION_DOT = .7503E-4
MEAN_MOTION_DDOT = 0

CCSDS_OMM_VERS = 2.0
CREATION_DATE  = 
ORIGINATOR     = 

OBJECT_NAME    = SL-14 R/B
OBJECT_ID      = 1982-092B
CENTER_NAME    = EARTH
REF_FRAME      = TEME
TIME_SYSTEM    = UTC
MEAN_ELEMENT_THEORY = SGP/SGP4

EPOCH          = 2025-10-30T20:43:35.357088
MEAN_MOTION    = 14.86479190
ECCENTRICITY   = .0020921
INCLINATION    = 82.5662
RA_OF_ASC_NODE = 262.8091
ARG_OF_PERICENTER = 16.5498
MEAN_ANOMALY   = 13.0055

EPHEMERIS_TYPE = 0
CLASSIFICATION_TYPE = U
NORAD_CAT_ID   = 13553
ELEMENT_SET_NO = 999
REV_AT_EPOCH   = 30964
BSTAR          = .99577E-4
MEAN_MOTION_DOT = .908E-5
MEAN_MOTION_DDOT = 0

CCSDS_OMM_VERS = 2.0
CREATION_DATE  = 
ORIGINATOR     = 

OBJECT_NAME    = SL-3 R/B
OBJECT_ID      = 1983-010B
CENTER_NAME    = EARTH
REF_FRAME      = TEME
TIME_SYSTEM    = UTC
MEAN_ELEMENT_THEORY = SGP/SGP4

EPOCH          = 2025-10-30T01:17:43.698336
MEAN_MOTION    = 15.41907977
ECCENTRICITY   = .00181106
INCLINATION    = 81.1044
RA_OF_ASC_NODE = 161.8784
ARG_OF_PERICENTER = 138.2297
MEAN_ANOMALY   = 222.0332

EPHEMERIS_TYPE = 0
CLASSIFICATION_TYPE = U
NORAD_CAT_ID   = 13819
ELEMENT_SET_NO = 999
REV_AT_EPOCH   = 33778
BSTAR          = .36851954E-3
MEAN_MOTION_DOT = .1579E-3
MEAN_MOTION_DDOT = 0

CCSDS_OMM_VERS = 2.0
CREATION_DATE  = 
ORIGINATOR     = 

OBJECT_NAME    = SL-3 R/B
OBJECT_ID      = 1983-075B
CENTER_NAME    = EARTH
REF_FRAME      = TEME
TIME_SYSTEM    = UTC
MEAN_ELEMENT_THEORY = SGP/SGP4

EPOCH          = 2025-10-30T18:39:14.957280
MEAN_MOTION    = 15.34881375
ECCENTRICITY   = .0022578
INCLINATION    = 97.6108
RA_OF_ASC_NODE = 298.8593
ARG_OF_PERICENTER = 339.0013
MEAN_ANOMALY   = 21.0300

EPHEMERIS_TYPE = 0
CLASSIFICATION_TYPE = U
NORAD_CAT_ID   = 14208
ELEMENT_SET_NO = 999
REV_AT_EPOCH   = 31020
BSTAR          = .44886E-3
MEAN_MOTION_DOT = .15235E-3
MEAN_MOTION_DDOT = 0

CCSDS_OMM_VERS = 2.0
CREATION_DATE  = 
ORIGINATOR     = 

OBJECT_NAME    = COSMOS 1536
OBJECT_ID      = 1984-013A
CENTER_NAME    = EARTH
REF_FRAME      = TEME
TIME_SYSTEM    = UTC
MEAN_ELEMENT_THEORY = SGP/SGP4

EPOCH          = 2025-10-30T19:31:23.439936
MEAN_MOTION    = 15.21727987
ECCENTRICITY   = .0016307
INCLINATION    = 82.5465
RA_OF_ASC_NODE = 236.7047
ARG_OF_PERICENTER = 26.3754
MEAN_ANOMALY   = 333.8309

EPHEMERIS_TYPE = 0
CLASSIFICATION_TYPE = U
NORAD_CAT_ID   = 14699
ELEMENT_SET_NO = 999
REV_AT_EPOCH   = 25285
BSTAR          = .5393E-3
MEAN_MOTION_DOT = .12294E-3
MEAN_MOTION_DDOT = 0

CCSDS_OMM_VERS = 2.0
CREATION_DATE  = 
ORIGINATOR     = 

OBJECT_NAME    = SL-14 R/B
OBJECT_ID      = 1984-027B
CENTER_NAME    = EARTH
REF_FRAME      = TEME
TIME_SYSTEM    = UTC
MEAN_ELEMENT_THEORY = SGP/SGP4

EPOCH          = 2025-10-30T06:05:12.548544
MEAN_MOTION    = 14.85808515
ECCENTRICITY   = .00191395
INCLINATION    = 82.5446
RA_OF_ASC_NODE = 7.3335
ARG_OF_PERICENTER = 48.9340
MEAN_ANOMALY   = 311.3526

EPHEMERIS_TYPE = 0
CLASSIFICATION_TYPE = U
NORAD_CAT_ID   = 14820
ELEMENT_SET_NO = 999
REV_AT_EPOCH   = 22826
BSTAR          = .69829052E-4
MEAN_MOTION_DOT = .633E-5
MEAN_MOTION_DDOT = 0

CCSDS_OMM_VERS = 2.0
CREATION_DATE  = 
ORIGINATOR     = 

OBJECT_NAME    = SL-8 R/B
OBJECT_ID      = 1985-006B
CENTER_NAME    = EARTH
REF_FRAME      = TEME
TIME_SYSTEM    = UTC
MEAN_ELEMENT_THEORY = SGP/SGP4

EPOCH          = 2025-10-29T23:49:14.083104
MEAN_MOTION    = 14.37681482
ECCENTRICITY   = .00174649
INCLINATION    = 74.0433
RA_OF_ASC_NODE = 141.6205
ARG_OF_PERICENTER = 88.7398
MEAN_ANOMALY   = 20.0325

EPHEMERIS_TYPE = 0
CLASSIFICATION_TYPE = U
NORAD_CAT_ID   = 15483
ELEMENT_SET_NO = 999
REV_AT_EPOCH   = 13524
BSTAR          = .11296631E-3
MEAN_MOTION_DOT = .314E-5
MEAN_MOTION_DDOT = 0

CCSDS_OMM_VERS = 2.0
CREATION_DATE  = 
ORIGINATOR     = 

OBJECT_NAME    = SL-12 R/B(2)
OBJECT_ID      = 1985-042D
CENTER_NAME    = EARTH
REF_FRAME      = TEME
TIME_SYSTEM    = UTC
MEAN_ELEMENT_THEORY = SGP/SGP4

EPOCH          = 2025-10-30T06:31:02.246592
MEAN_MOTION    = 14.21931552
ECCENTRICITY   = .00366017
INCLINATION    = 71.1099
RA_OF_ASC_NODE = 3.2527
ARG_OF_PERICENTER = 325.5260
MEAN_ANOMALY   = 98.4002

EPHEMERIS_TYPE = 0
CLASSIFICATION_TYPE = U
NORAD_CAT_ID   = 15772
ELEMENT_SET_NO = 999
REV_AT_EPOCH   = 9585
BSTAR          = .78240239E-4
MEAN_MOTION_DOT = .126E-5
MEAN_MOTION_DDOT = 0

CCSDS_OMM_VERS = 2.0
CREATION_DATE  = 
ORIGINATOR     = 

OBJECT_NAME    = SL-14 R/B
OBJECT_ID      = 1985-069B
CENTER_NAME    = EARTH
REF_FRAME      = TEME
TIME_SYSTEM    = UTC
MEAN_ELEMENT_THEORY = SGP/SGP4

EPOCH          = 2025-10-30T06:39:57.421152
MEAN_MOTION    = 14.86249409
ECCENTRICITY   = .00173306
INCLINATION    = 82.5255
RA_OF_ASC_NODE = 147.5638
ARG_OF_PERICENTER = 264.2482
MEAN_ANOMALY   = 95.6759

EPHEMERIS_TYPE = 0
CLASSIFICATION_TYPE = U
NORAD_CAT_ID   = 15945
ELEMENT_SET_NO = 999
REV_AT_EPOCH   = 15346
BSTAR          = .68651309E-4
MEAN_MOTION_DOT = .629E-5
MEAN_MOTION_DDOT = 0

CCSDS_OMM_VERS = 2.0
CREATION_DATE  = 
ORIGINATOR     = 

OBJECT_NAME    = SL-16 R/B
OBJECT_ID      = 1985-097B
CENTER_NAME    = EARTH
REF_FRAME      = TEME
TIME_SYSTEM    = UTC
MEAN_ELEMENT_THEORY = SGP/SGP4

EPOCH          = 2025-10-30T17:20:36.751776
MEAN_MOTION    = 14.16575988
ECCENTRICITY   = .0005179
INCLINATION    = 71.0041
RA_OF_ASC_NODE = 54.1629
ARG_OF_PERICENTER = 95.9163
MEAN_ANOMALY   = 54.3559

EPHEMERIS_TYPE = 0
CLASSIFICATION_TYPE = U
NORAD_CAT_ID   = 16182
ELEMENT_SET_NO = 999
REV_AT_EPOCH   = 6882
BSTAR          = .11741E-3
MEAN_MOTION_DOT = .186E-5
MEAN_MOTION_DDOT = 0

CCSDS_OMM_VERS = 2.0
CREATION_DATE  = 
ORIGINATOR     = 

OBJECT_NAME    = SL-14 R/B
OBJECT_ID      = 1986-006B
CENTER_NAME    = EARTH
REF_FRAME      = TEME
TIME_SYSTEM    = UTC
MEAN_ELEMENT_THEORY = SGP/SGP4

EPOCH          = 2025-10-30T16:33:46.908864
MEAN_MOTION    = 14.86583974
ECCENTRICITY   = .0076408
INCLINATION    = 82.5300
RA_OF_ASC_NODE = 22.0501
ARG_OF_PERICENTER = 344.7460
MEAN_ANOMALY   = 15.1452

EPHEMERIS_TYPE = 0
CLASSIFICATION_TYPE = U
NORAD_CAT_ID   = 16496
ELEMENT_SET_NO = 999
REV_AT_EPOCH   = 12989
BSTAR          = .86558E-4
MEAN_MOTION_DOT = .835E-5
MEAN_MOTION_DDOT = 0

