SL-3 R/B                
1 13154U 82039B   25303.74702941  .00003934  00000+0  24315-3 0  9999
2 13154  81.1839   5.5190 0032814  31.4384 328.8793 15.09183621362037
SL-3 R/B                
1 13403U 82079B   25303.78548502  .00007503  00000+0  31602-3 0  9998
2 13403  81.1490 346.2738 0024712 243.3311 116.5391 15.22930228357917
SL-14 R/B               
1 13553U 82092B   25303.86360367  .00000908  00000+0  99577-4 0  9997
2 13553  82.5662 262.8091 0020921  16.5498  13.0055 14.86479190309648
SL-3 R/B                
1 13819U 83010B   25303.05397799  .00015790  00000+0  36852-3 0  9994
2 13819  81.1044 161.8784 0018110 138.2297 222.0332 15.41907977337782
SL-3 R/B                
1 14208U 83075B   25303.77725645  .00015235  00000+0  44886-3 0  9992
2 14208  97.6108 298.8593 0022578 339.0013  21.0300 15.34881375310202
COSMOS 1536             
1 14699U 84013A   25303.81346574  .00012294  00000+0  53930-3 0  9996
2 14699  82.5465 236.7047 0016307  26.3754 333.8309 15.21727987252854
SL-14 R/B               
1 14820U 84027B   25303.25361746  .00000633  00000+0  69829-4 0  9992
2 14820  82.5446   7.3335 0019139  48.9340 311.3526 14.85808515228264
SL-8 R/B                
1 15483U 85006B   25302.99252411  .00000314  00000+0  11297-3 0  9995
2 15483  74.0433 141.6205 0017464  88.7398  20.0325 14.37681482135249
SL-12 R/B(2)            
1 15772U 85042D   25303.27155378  .00000126  00000+0  78240-4 0  9995
2 15772  71.1099   3.2527 0036601 325.5260  98.4002 14.21931552 95852
SL-14 R/B               
1 15945U 85069B   25303.27774793  .00000629  00000+0  68651-4 0  9997
2 15945  82.5255 147.5638 0017330 264.2482  95.6759 14.86249409153466
SL-16 R/B               
1 16182U 85097B   25303.72264759  .00000186  00000+0  11741-3 0  9993
2 16182  71.0041  54.1629 0005179  95.9163  54.3559 14.16575988 68824
SL-14 R/B               
1 16496U 86006B   25303.69012626  .00000835  00000+0  86558-4 0  9992
2 16496  82.5300  22.0501 0076408 344.7460  15.1452 14.86583974129891
